[{"OBJECT_NAME":"STARLINK-30105","OBJECT_ID":"2023-105D","EPOCH":"2026-03-09T06:50:46.262688","MEAN_MOTION":15.275786,"ECCENTRICITY":0.00010775,"INCLINATION":43.0064,"RA_OF_ASC_NODE":33.1157,"ARG_OF_PERICENTER":264.562,"MEAN_ANOMALY":95.5109,"EPHEMERIS_TYPE":0,"CLASSIFICATION_TYPE":"U","NORAD_CAT_ID":57433,"ELEMENT_SET_NO":999,"REV_AT_EPOCH":14826,"BSTAR":1.7084428e-5,"MEAN_MOTION_DOT":2.08e-6,"MEAN_MOTION_DDOT":0},{"OBJECT_NAME":"COSMOS 1862","OBJECT_ID":"1987-055A","EPOCH":"2026-03-09T22:37:02.390592","MEAN_MOTION":15.30492139,"ECCENTRICITY":0.00097484,"INCLINATION":82.4856,"RA_OF_ASC_NODE":47.1862,"ARG_OF_PERICENTER":26.6325,"MEAN_ANOMALY":333.5414,"EPHEMERIS_TYPE":0,"CLASSIFICATION_TYPE":"U","NORAD_CAT_ID":18152,"ELEMENT_SET_NO":999,"REV_AT_EPOCH":8987,"BSTAR":0.00034125048,"MEAN_MOTION_DOT":0.00010107,"MEAN_MOTION_DDOT":0}]
